[{"OBJECT_NAME":"SATMAR","OBJECT_ID":"2025-135Z","EPOCH":"2026-03-09T20:30:41.171616","MEAN_MOTION":15.2332395,"ECCENTRICITY":8.237e-5,"INCLINATION":97.4487,"RA_OF_ASC_NODE":185.1397,"ARG_OF_PERICENTER":164.2564,"MEAN_ANOMALY":195.8698,"EPHEMERIS_TYPE":0,"CLASSIFICATION_TYPE":"U","NORAD_CAT_ID":64551,"ELEMENT_SET_NO":999,"REV_AT_EPOCH":3979,"BSTAR":0.00047484624,"MEAN_MOTION_DOT":0.0001121,"MEAN_MOTION_DDOT":0},{"OBJECT_NAME":"COSMOS 2251 DEB","OBJECT_ID":"1993-036AUQ","EPOCH":"2026-03-03T09:54:29.808000","MEAN_MOTION":15.20399634,"ECCENTRICITY":0.00017924,"INCLINATION":74.0063,"RA_OF_ASC_NODE":215.2278,"ARG_OF_PERICENTER":345.5252,"MEAN_ANOMALY":40.7842,"EPHEMERIS_TYPE":0,"CLASSIFICATION_TYPE":"U","NORAD_CAT_ID":35901,"ELEMENT_SET_NO":999,"REV_AT_EPOCH":87347,"BSTAR":0.0053747812,"MEAN_MOTION_DOT":0.00119078,"MEAN_MOTION_DDOT":0}]
